[{"OBJECT_NAME":"SCD 2","OBJECT_ID":"1998-060A","EPOCH":"2026-03-09T01:42:33.915168","MEAN_MOTION":14.45482756,"ECCENTRICITY":0.00168978,"INCLINATION":24.9965,"RA_OF_ASC_NODE":329.5569,"ARG_OF_PERICENTER":144.656,"MEAN_ANOMALY":345.4076,"EPHEMERIS_TYPE":0,"CLASSIFICATION_TYPE":"U","NORAD_CAT_ID":25504,"ELEMENT_SET_NO":999,"REV_AT_EPOCH":44582,"BSTAR":9.618387e-5,"MEAN_MOTION_DOT":5.27e-6,"MEAN_MOTION_DDOT":0},{"OBJECT_NAME":"COSMOS 2251 DEB","OBJECT_ID":"1993-036NT","EPOCH":"2026-03-09T21:33:01.233216","MEAN_MOTION":14.50498712,"ECCENTRICITY":0.00137831,"INCLINATION":74.0317,"RA_OF_ASC_NODE":352.5482,"ARG_OF_PERICENTER":105.1188,"MEAN_ANOMALY":322.999,"EPHEMERIS_TYPE":0,"CLASSIFICATION_TYPE":"U","NORAD_CAT_ID":34321,"ELEMENT_SET_NO":999,"REV_AT_EPOCH":89750,"BSTAR":0.000633234,"MEAN_MOTION_DOT":2.454e-5,"MEAN_MOTION_DDOT":0}]
